NORAD_CAT_ID,OBJECT_NAME,OBJECT_TYPE,EPOCH,MEAN_MOTION,ECCENTRICITY,INCLINATION,RA_OF_ASC_NODE,ARG_OF_PERICENTER,MEAN_ANOMALY,BSTAR,MEAN_MOTION_DOT,MEAN_MOTION_DDOT,TLE_LINE0,TLE_LINE1,TLE_LINE2,SEMIMAJOR_AXIS,PERIOD,APOGEE,PERIGEE,DECAYED
53830.0,STARLINK-4761,PAYLOAD,2024-01-26 16:00:12,15.08845812,0.0001557,53.2169,174.1816,68.4872,291.6286,0.00014749,2.06e-05,0.0,0 STARLINK-4761,1 53830U 22114N   24026.66680659  .00002060  00000-0  14749-3 0  9995,2 53830  53.2169 174.1816 0001557  68.4872 291.6286 15.08845812 75590,6917.863,95.437,540.805,538.651,0.0
53830.0,STARLINK-4761,PAYLOAD,2024-01-27 09:29:26,15.0884394,0.0001461,53.216,170.9128,72.2091,287.9061,9.7832e-05,1.27e-05,0.0,0 STARLINK-4761,1 53830U 22114N   24027.39544886  .00001270  00000-0  97832-4 0  9994,2 53830  53.2160 170.9128 0001461  72.2091 287.9061 15.08843940 75703,6917.868,95.437,540.744,538.723,0.0
53830.0,STARLINK-4761,PAYLOAD,2024-01-27 14:15:36,15.08844081,0.0001457,53.216,170.0207,72.7595,287.3557,9.2078e-05,1.178e-05,0.0,0 STARLINK-4761,1 53830U 22114N   24027.59416839  .00001178  00000-0  92078-4 0  9996,2 53830  53.2160 170.0207 0001457  72.7595 287.3557 15.08844081 76275,6917.868,95.437,540.741,538.725,0.0
53830.0,STARLINK-4761,PAYLOAD,2024-01-27 15:50:59,15.088442,0.0001463,53.2161,169.7233,72.1325,287.9827,8.9673e-05,1.14e-05,0.0,0 STARLINK-4761,1 53830U 22114N   24027.66040817  .00001140  00000-0  89673-4 0  9999,2 53830  53.2161 169.7233 0001463  72.1325 287.9827 15.08844200 76282,6917.868,95.437,540.745,538.72,0.0
53830.0,STARLINK-4761,PAYLOAD,2024-01-28 09:20:14,15.08837875,0.0001672,53.2169,166.4548,72.7493,287.3682,1.87e-05,1e-07,0.0,0 STARLINK-4761,1 53830U 22114N   24028.38905424  .00000010  00000-0  18700-4 0  9991,2 53830  53.2169 166.4548 0001672  72.7493 287.3682 15.08837875 75852,6917.887,95.438,540.909,538.595,0.0
53830.0,STARLINK-4761,PAYLOAD,2024-01-28 14:06:23,15.08835524,0.0001489,53.2169,165.5614,96.8688,263.2473,-7.9176e-06,-4.14e-06,0.0,0 STARLINK-4761,1 53830U 22114N   24028.58777466 -.00000414  00000-0 -79176-5 0  9991,2 53830  53.2169 165.5614 0001489  96.8688 263.2473 15.08835524 76429,6917.894,95.438,540.789,538.729,0.0
53830.0,STARLINK-4761,PAYLOAD,2024-01-28 15:41:46,15.08836055,0.0001504,53.2171,165.2642,94.1677,265.9487,-7.2458e-06,-4.03e-06,0.0,0 STARLINK-4761,1 53830U 22114N   24028.65401444 -.00000403  00000-0 -72458-5 0  9993,2 53830  53.2171 165.2642 0001504  94.1677 265.9487 15.08836055 76432,6917.892,95.438,540.798,538.717,0.0
53830.0,STARLINK-4761,PAYLOAD,2024-01-29 12:21:46,15.08843433,0.0001433,53.2171,161.3988,94.8269,265.2887,0.0001103,1.468e-05,0.0,0 STARLINK-4761,1 53830U 22114N   24029.51512667  .00001468  00000-0  11030-3 0  9996,2 53830  53.2171 161.3988 0001433  94.8269 265.2887 15.08843433 76027,6917.87,95.437,540.726,538.744,0.0
53830.0,STARLINK-4761,PAYLOAD,2024-01-29 18:43:19,15.08849424,0.0001484,53.217,160.2079,95.7946,264.3216,0.00014687,2.051e-05,0.0,0 STARLINK-4761,1 53830U 22114N   24029.78008113  .00002051  00000-0  14687-3 0  9991,2 53830  53.2170 160.2079 0001484  95.7946 264.3216 15.08849424 76609,6917.852,95.437,540.743,538.69,0.0
53830.0,STARLINK-4761,PAYLOAD,2024-01-30 12:12:35,15.08830665,0.0001294,53.217,156.9367,73.6965,286.4169,2.9387e-05,1.8e-06,0.0,0 STARLINK-4761,1 53830U 22114N   24030.50873977  .00000180  00000-0  29387-4 0  9996,2 53830  53.2170 156.9367 0001294  73.6965 286.4169 15.08830665 76177,6917.909,95.438,540.669,538.879,0.0
53830.0,STARLINK-4761,PAYLOAD,2024-01-30 13:47:58,15.08833332,0.0001317,53.2167,156.6373,84.4516,275.6626,4.2974e-05,3.96e-06,0.0,0 STARLINK-4761,1 53830U 22114N   24030.57497772  .00000396  00000-0  42974-4 0  9994,2 53830  53.2167 156.6373 0001317  84.4516 275.6626 15.08833332 76728,6917.901,95.438,540.677,538.855,0.0
53830.0,STARLINK-4761,PAYLOAD,2024-01-31 12:03:21,15.08843099,0.0001406,53.2173,152.4727,91.1252,268.9901,-5.758e-06,-3.8e-06,0.0,0 STARLINK-4761,1 53830U 22114N   24031.50233447 -.00000380  00000-0 -57580-5 0  9990,2 53830  53.2173 152.4727 0001406  91.1252 268.9901 15.08843099 76321,6917.871,95.437,540.709,538.763,0.0
53830.0,STARLINK-4761,PAYLOAD,2024-02-01 11:54:09,15.08837505,0.0001381,53.2174,148.019,103.9796,256.135,7.2642e-05,8.68e-06,0.0,0 STARLINK-4761,1 53830U 22114N   24032.49593750  .00000868  00000-0  72642-4 0  9999,2 53830  53.2174 148.0190 0001381 103.9796 256.1350 15.08837505 77013,6917.888,95.438,540.708,538.798,0.0
53830.0,STARLINK-4761,PAYLOAD,2024-02-02 13:20:18,15.08845305,0.0001425,53.2171,143.255,92.1941,267.9215,9.4062e-05,1.21e-05,0.0,0 STARLINK-4761,1 53830U 22114N   24033.55577222  .00001210  00000-0  94062-4 0  9995,2 53830  53.2171 143.2550 0001425  92.1941 267.9215 15.08845305 77171,6917.864,95.437,540.715,538.743,0.0
53830.0,STARLINK-4761,PAYLOAD,2024-02-02 14:55:42,15.08845446,0.0001829,53.2181,142.9643,67.1235,292.995,0.00012402,1.687e-05,0.0,0 STARLINK-4761,1 53830U 22114N   24033.62201487  .00001687  00000-0  12402-3 0  9995,2 53830  53.2181 142.9643 0001829  67.1235 292.9950 15.08845446 76648,6917.864,95.437,540.994,538.463,0.0
53830.0,STARLINK-4761,PAYLOAD,2024-02-03 13:11:06,15.08839192,0.0001659,53.2187,138.7992,77.1854,282.9323,4.1994e-05,3.8e-06,0.0,0 STARLINK-4761,1 53830U 22114N   24034.54938145  .00000380  00000-0  41994-4 0  9993,2 53830  53.2187 138.7992 0001659  77.1854 282.9323 15.08839192 77323,6917.883,95.438,540.896,538.6,0.0
53830.0,STARLINK-4761,PAYLOAD,2024-02-03 16:21:52,15.08841824,0.0001519,53.2177,138.2021,89.532,270.5846,6.6768e-05,7.75e-06,0.0,0 STARLINK-4761,1 53830U 22114N   24034.68185803  .00000775  00000-0  66768-4 0  9997,2 53830  53.2177 138.2021 0001519  89.5320 270.5846 15.08841824 76800,6917.875,95.437,540.791,538.689,0.0
53830.0,STARLINK-4761,PAYLOAD,2024-02-04 13:01:52,15.08850699,0.0001654,53.217,134.3395,75.2184,284.8991,5.3015e-05,5.56e-06,0.0,0 STARLINK-4761,1 53830U 22114N   24035.54297279  .00000556  00000-0  53015-4 0  9992,2 53830  53.2170 134.3395 0001654  75.2184 284.8991 15.08850699 77477,6917.848,95.437,540.857,538.568,0.0
53830.0,STARLINK-4761,PAYLOAD,2024-02-05 12:52:40,15.08842091,0.0001503,53.2168,129.8749,89.389,270.7274,5.9903e-05,6.66e-06,0.0,0 STARLINK-4761,1 53830U 22114N   24036.53657677  .00000666  00000-0  59903-4 0  9998,2 53830  53.2168 129.8749 0001503  89.3890 270.7274 15.08842091 77081,6917.874,95.437,540.779,538.699,0.0
53830.0,STARLINK-4761,PAYLOAD,2024-02-06 12:43:26,15.08852314,0.0001684,53.2178,125.4189,103.6808,256.4371,0.0001225,1.663e-05,0.0,0 STARLINK-4761,1 53830U 22114N   24037.53016960  .00001663  00000-0  12250-3 0  9994,2 53830  53.2178 125.4189 0001684 103.6808 256.4371 15.08852314 77775,6917.843,95.437,540.873,538.543,0.0
53830.0,STARLINK-4761,PAYLOAD,2024-02-07 12:34:14,15.08840916,0.0001558,53.218,120.9605,104.2565,255.86,3.3659e-05,2.48e-06,0.0,0 STARLINK-4761,1 53830U 22114N   24038.52377901  .00000248  00000-0  33659-4 0  9994,2 53830  53.2180 120.9605 0001558 104.2565 255.8600 15.08840916 77388,6917.878,95.437,540.82,538.665,0.0
53830.0,STARLINK-4761,PAYLOAD,2024-02-07 22:06:34,15.08832196,0.0001359,53.217,119.1752,96.6598,263.4548,-2.1199e-05,-6.25e-06,0.0,0 STARLINK-4761,1 53830U 22114N   24038.92122736 -.00000625  00000-0 -21199-4 0  9999,2 53830  53.2170 119.1752 0001359  96.6598 263.4548 15.08832196 77982,6917.904,95.438,540.709,538.829,0.0
53830.0,STARLINK-4761,PAYLOAD,2024-02-08 14:00:25,15.08845482,0.0001871,53.2187,116.2015,125.005,235.1118,-6.5951e-05,-1.338e-05,0.0,0 STARLINK-4761,1 53830U 22114N   24039.58362427 -.00001338  00000-0 -65951-4 0  9991,2 53830  53.2187 116.2015 0001871 125.0050 235.1118 15.08845482 78082,6917.864,95.437,541.023,538.434,0.0
53830.0,STARLINK-4761,PAYLOAD,2024-02-09 12:15:48,15.08846232,0.0001303,53.2175,112.0355,100.3316,259.7823,0.00013603,1.878e-05,0.0,0 STARLINK-4761,1 53830U 22114N   24040.51097987  .00001878  00000-0  13603-3 0  9995,2 53830  53.2175 112.0355 0001303 100.3316 259.7823 15.08846232 78226,6917.861,95.437,540.628,538.825,0.0
53830.0,STARLINK-4761,PAYLOAD,2024-02-10 04:09:40,15.08837351,0.0001455,53.2179,109.064,87.8694,272.2464,0.00013686,1.891e-05,0.0,0 STARLINK-4761,1 53830U 22114N   24041.17338747  .00001891  00000-0  13686-3 0  9996,2 53830  53.2179 109.0640 0001455  87.8694 272.2464 15.08837351 77782,6917.888,95.438,540.76,538.747,0.0
53830.0,STARLINK-4761,PAYLOAD,2024-02-10 12:06:36,15.08846757,0.0001584,53.2178,107.5764,78.2506,281.8664,0.00013253,1.822e-05,0.0,0 STARLINK-4761,1 53830U 22114N   24041.50458353  .00001822  00000-0  13253-3 0  9993,2 53830  53.2178 107.5764 0001584  78.2506 281.8664 15.08846757 78374,6917.86,95.437,540.821,538.629,0.0
53830.0,STARLINK-4761,PAYLOAD,2024-02-11 10:21:59,15.08845751,0.0001703,53.2174,103.4144,64.8996,295.2173,7.9024e-05,9.7e-06,0.0,0 STARLINK-4761,1 53830U 22114N   24042.43194413  .00000970  00000-0  79024-4 0  9992,2 53830  53.2174 103.4144 0001703  64.8996 295.2173 15.08845751 77976,6917.863,95.437,540.906,538.55,0.0
53830.0,STARLINK-4761,PAYLOAD,2024-02-12 10:12:46,15.08847575,0.0001795,53.2171,98.9529,79.7716,280.3479,0.00011328,1.516e-05,0.0,0 STARLINK-4761,1 53830U 22114N   24043.42553951  .00001516  00000-0  11328-3 0  9997,2 53830  53.2171  98.9529 0001795  79.7716 280.3479 15.08847575 78661,6917.857,95.437,540.964,538.48,0.0
53830.0,STARLINK-4761,PAYLOAD,2024-02-13 03:42:01,15.0883529,0.0002256,53.2192,95.6815,111.2823,248.841,3.5723e-06,-2.31e-06,0.0,0 STARLINK-4761,1 53830U 22114N   24044.15418895 -.00000231  00000-0  35723-5 0  9996,2 53830  53.2192  95.6815 0002256 111.2823 248.8410 15.08835290 78238,6917.895,95.438,541.32,538.199,0.0
53830.0,STARLINK-4761,PAYLOAD,2024-02-13 10:03:34,15.08837792,0.0001755,53.2174,94.4913,100.8056,259.3134,2.3005e-05,7.8e-07,0.0,0 STARLINK-4761,1 53830U 22114N   24044.41914838  .00000078  00000-0  23005-4 0  9990,2 53830  53.2174  94.4913 0001755 100.8056 259.3134 15.08837792 78812,6917.887,95.438,540.966,538.538,0.0
